EUTELSAT 7A             
1 28187U 04008A   25294.59438689  .00000113  00000+0  00000+0 0  9995
2 28187   5.2221  74.8433 0000902 103.0046 287.2499  1.00269371 78964
EUTELSAT 174A           
1 28924U 05052A   25294.79924531  .00000021  00000+0  00000+0 0  9990
2 28924   3.6128  79.4679 0006281 134.2099 278.6419  1.00275569 49942
EUTELSAT HOTBIRD 13B    
1 29270U 06032A   25294.78184529  .00000164  00000+0  00000+0 0  9996
2 29270   1.0418  84.8146 0003969 118.5857 141.6375  1.00272414 44915
EUTELSAT HOTBIRD 13C    
1 33459U 08065A   25294.76223846 -.00000091  00000+0  00000+0 0  9992
2 33459   2.3340  81.9961 0005849 148.9150  61.4776  1.00272309 44953
EUTELSAT 36B            
1 36101U 09065A   25294.56067338  .00000119  00000+0  00000+0 0  9990
2 36101   0.0644  40.8247 0006055 174.6542  67.1457  1.00274839 58318
EUTELSAT KA-SAT 9A      
1 37258U 10069A   25294.76648515  .00000069  00000+0  00000+0 0  9998
2 37258   0.0599 318.8327 0002430 218.4487 138.1340  1.00268783 41612
EUTELSAT 7 WEST A       
1 37816U 11051A   25294.76327847 -.00000052  00000+0  00000+0 0  9995
2 37816   0.0884  43.4023 0006317 162.1962  92.3543  1.00272332 51492
EUTELSAT 16A            
1 37836U 11057A   25294.76787183  .00000112  00000+0  00000+0 0  9992
2 37836   0.0676 354.1494 0005506 220.1316 108.6418  1.00273645  4931
